[{"OBJECT_NAME":"AETHER-2","OBJECT_ID":"2023-174AV","EPOCH":"2026-03-09T17:13:49.792224","MEAN_MOTION":15.33264165,"ECCENTRICITY":0.00086301,"INCLINATION":97.3931,"RA_OF_ASC_NODE":151.9008,"ARG_OF_PERICENTER":139.5247,"MEAN_ANOMALY":220.6639,"EPHEMERIS_TYPE":0,"CLASSIFICATION_TYPE":"U","NORAD_CAT_ID":58299,"ELEMENT_SET_NO":999,"REV_AT_EPOCH":12998,"BSTAR":0.00026165949,"MEAN_MOTION_DOT":8.341e-5,"MEAN_MOTION_DDOT":0},{"OBJECT_NAME":"STARLINK-35025","OBJECT_ID":"2025-192AC","EPOCH":"2026-03-09T17:12:35.094240","MEAN_MOTION":15.3017233,"ECCENTRICITY":8.318e-5,"INCLINATION":53.1606,"RA_OF_ASC_NODE":232.5559,"ARG_OF_PERICENTER":84.1219,"MEAN_ANOMALY":275.9876,"EPHEMERIS_TYPE":0,"CLASSIFICATION_TYPE":"U","NORAD_CAT_ID":65430,"ELEMENT_SET_NO":999,"REV_AT_EPOCH":2938,"BSTAR":0.00075005278,"MEAN_MOTION_DOT":0.00021902,"MEAN_MOTION_DDOT":0}]
